start=new Date('2022-02-24T00:00:00.000Z').valueOf();
sats=[{"LAUNCH_DATE":"2022-02-03","FILE":"3317219","INCLINATION":"53.2159","GP_ID":"196789305","ELEMENT_SET_NO":"999","MEAN_ELEMENT_THEORY":"SGP4","TIME_SYSTEM":"UTC","OBJECT_ID":"2022-010P","ECCENTRICITY":"0.00012520","DECAY_DATE":null,"EPHEMERIS_TYPE":"0","COUNTRY_CODE":"US","OBJECT_TYPE":"PAYLOAD","OBJECT_NAME":"STARLINK-3182","NORAD_CAT_ID":"51469","CENTER_NAME":"EARTH","REF_FRAME":"TEME","MEAN_ANOMALY":"96.7999","BSTAR":"0.00055675000000","SEMIMAJOR_AXIS":"6728.078","PERIOD":"91.537","PERIAPSIS":"349.100","REV_AT_EPOCH":"256","CLASSIFICATION_TYPE":"U","ARG_OF_PERICENTER":"57.2816","MEAN_MOTION":"15.73135993","RA_OF_ASC_NODE":"72.5501","RCS_SIZE":"LARGE","SITE":"AFETR","APOAPSIS":"350.785","TLE_LINE2":"2 51469  53.2159  72.5501 0001252  57.2816  96.7999 15.73135993  2569","EPOCH":"2022-02-23T22:00:00.999936","MEAN_MOTION_DOT":"0.00078030","MEAN_MOTION_DDOT":"0.0000000000000","TLE_LINE1":"1 51469U 22010P   22054.91667824  .00078030  00000-0  55675-3 0  9995"},{"DECAY_DATE":null,"OBJECT_TYPE":"PAYLOAD","COUNTRY_CODE":"US","EPHEMERIS_TYPE":"0","OBJECT_NAME":"STARLINK-3165","NORAD_CAT_ID":"51471","CENTER_NAME":"EARTH","REF_FRAME":"TEME","MEAN_ANOMALY":"48.8938","LAUNCH_DATE":"2022-02-03","INCLINATION":"53.2126","FILE":"3317219","GP_ID":"196788885","ELEMENT_SET_NO":"999","MEAN_ELEMENT_THEORY":"SGP4","TIME_SYSTEM":"UTC","OBJECT_ID":"2022-010R","ECCENTRICITY":"0.00015980","MEAN_MOTION":"15.81678112","RA_OF_ASC_NODE":"71.8935","RCS_SIZE":"LARGE","SITE":"AFETR","APOAPSIS":"326.768","TLE_LINE2":"2 51471  53.2126  71.8935 0001598 311.1948  48.8938 15.81678112  3993","MEAN_MOTION_DOT":"-0.00350264","EPOCH":"2022-02-23T18:32:56.104512","MEAN_MOTION_DDOT":"0.0000000000000","TLE_LINE1":"1 51471U 22010R   22054.77287158 -.00350264  00000-0 -17760-2 0  9996","BSTAR":"-0.00177600000000","SEMIMAJOR_AXIS":"6703.832","PERIOD":"91.043","PERIAPSIS":"324.625","REV_AT_EPOCH":"399","ARG_OF_PERICENTER":"311.1948","CLASSIFICATION_TYPE":"U"},{"REV_AT_EPOCH":"256","CLASSIFICATION_TYPE":"U","ARG_OF_PERICENTER":"49.1138","PERIAPSIS":"348.868","SEMIMAJOR_AXIS":"6727.990","BSTAR":"0.00058354000000","PERIOD":"91.535","MEAN_MOTION_DDOT":"0.0000000000000","TLE_LINE1":"1 51472U 22010S   22054.91667824  .00081961  00000-0  58354-3 0  9993","EPOCH":"2022-02-23T22:00:00.999936","MEAN_MOTION_DOT":"0.00081961","SITE":"AFETR","RCS_SIZE":"LARGE","TLE_LINE2":"2 51472  53.2162  72.3721 0001468  49.1138 190.8831 15.73166626  2563","APOAPSIS":"350.843","MEAN_MOTION":"15.73166626","RA_OF_ASC_NODE":"72.3721","OBJECT_ID":"2022-010S","TIME_SYSTEM":"UTC","ECCENTRICITY":"0.00014680","MEAN_ELEMENT_THEORY":"SGP4","ELEMENT_SET_NO":"999","GP_ID":"196789442","LAUNCH_DATE":"2022-02-03","INCLINATION":"53.2162","FILE":"3317219","MEAN_ANOMALY":"190.8831","CENTER_NAME":"EARTH","REF_FRAME":"TEME","OBJECT_NAME":"STARLINK-3415","NORAD_CAT_ID":"51472","DECAY_DATE":null,"COUNTRY_CODE":"US","EPHEMERIS_TYPE":"0","OBJECT_TYPE":"PAYLOAD"}];
